[{"OBJECT_NAME":"OTTER","OBJECT_ID":"2025-009Q","EPOCH":"2026-03-09T17:21:07.902432","MEAN_MOTION":15.27809545,"ECCENTRICITY":0.00035728,"INCLINATION":97.4065,"RA_OF_ASC_NODE":151.3812,"ARG_OF_PERICENTER":310.771,"MEAN_ANOMALY":49.3219,"EPHEMERIS_TYPE":0,"CLASSIFICATION_TYPE":"U","NORAD_CAT_ID":62623,"ELEMENT_SET_NO":999,"REV_AT_EPOCH":6372,"BSTAR":0.00045151206,"MEAN_MOTION_DOT":0.00012198,"MEAN_MOTION_DDOT":0},{"OBJECT_NAME":"STARLINK-34125","OBJECT_ID":"2025-095M","EPOCH":"2026-03-09T08:04:21.353664","MEAN_MOTION":15.27572041,"ECCENTRICITY":0.00021463,"INCLINATION":43.0009,"RA_OF_ASC_NODE":178.2222,"ARG_OF_PERICENTER":280.6774,"MEAN_ANOMALY":79.3836,"EPHEMERIS_TYPE":0,"CLASSIFICATION_TYPE":"U","NORAD_CAT_ID":63901,"ELEMENT_SET_NO":999,"REV_AT_EPOCH":4772,"BSTAR":0.0011652717,"MEAN_MOTION_DOT":0.00031936,"MEAN_MOTION_DDOT":0}]
