OTTER                   
1 62623U 25009Q   26068.72300813  .00012198  00000+0  45151-3 0  9990
2 62623  97.4065 151.3812 0003573 310.7710  49.3219 15.27809545 63722
STARLINK-34125          
1 63901U 25095M   26068.33635826  .00031936  00000+0  11653-2 0  9997
2 63901  43.0009 178.2222 0002146 280.6774  79.3836 15.27572041 47728
